KUZGTU 1 (RS47S)        
1 57217U 23091AV  26159.13809841  .00013924  00000+0  48584-3 0  9994
2 57217  97.5065 223.5274 0012297 125.8264 234.4120 15.29654835162991
SONATE-2                
1 59112U 24043Q   26159.14874297  .00035468  00000+0  47245-3 0  9996
2 59112  97.5526 308.9962 0006657 226.5634 133.5068 15.58042281126486
MESAT1                  
1 60209U 24125G   26159.14155866  .00048785  00000+0  55240-3 0  9990
2 60209  97.2313  16.4235 0008757 240.2102 119.8286 15.62232780108159
OOV-CUBE (TUBSAT-30)    
1 60240U 24128F   26159.00606000  .00002948  00000+0  23033-3 0  9990
2 60240  61.9951 257.5861 0045783 131.6812 228.8211 15.02735598104732
COLIBRI-S (RS67S)       
1 61746U 24199M   26159.13859231  .00017974  00000+0  35297-3 0  9990
2 61746  97.3007  32.9121 0006603 321.6315  38.4465 15.47349130136014
HORS 3 (RS81S)          
1 61753U 24199U   26159.14275600  .00031842  00000+0  48650-3 0  9998
2 61753  97.2990  34.8071 0004362 331.1698  28.9314 15.54348989136158
HORS 4 (RS82S)          
1 61754U 24199V   26159.13001218  .00043537  00000+0  56246-3 0  9994
2 61754  97.2937  35.9383 0003242 320.2191  39.8827 15.58835446136233
ARCTICSAT 1 (RS74S)     
1 61762U 24199AD  26158.91177256  .01015373  58519-3  12929-2 0  9993
2 61762  97.2849  42.4330 0007564 203.5095 156.5843 16.07470356136635
SIT-2086                
1 61764U 24199AF  26159.11000947  .00036841  00000+0  60184-3 0  9997
2 61764  97.2947  35.2821 0004533 302.4944  57.5870 15.52461721133021
HYPERVIEW 1G (RS66S)    
1 61772U 24199AP  26159.10232669  .00139956  00000+0  99254-3 0  9994
2 61772  97.2894  38.3775 0002149 284.3692  75.7334 15.73517548133245
ALTAIR (RS65S)          
1 61779U 24199AW  26159.12730493  .00009868  00000+0  27556-3 0  9995
2 61779  97.3042  28.5385 0012038 347.0917  13.0017 15.36845284135729
ASRTU-1 (AO-123)        
1 61781U 24199AY  26159.10736483  .00008464  00000+0  24663-3 0  9998
2 61781  97.3013  27.8602 0013258 349.1404  10.9551 15.35546662132535
SAMSAT-IONOSPHERE (RS7*)
1 61784U 24199BB  26159.12743954  .00042856  00000+0  59623-3 0  9991
2 61784  97.2959  34.8061 0006331 323.8099  36.2727 15.56834953136150
RTU MIREA 1 (RS51S)     
1 61785U 24199BC  26159.10725682  .00061739  00000+0  75779-3 0  9999
2 61785  97.2947  35.5723 0005765 318.2736  41.8080 15.60101078133057
TEVEL2-4                
1 63213U 25052D   26158.66121392  .00020438  00000+0  61719-3 0  9994
2 63213  97.3922  55.0407 0004354 120.1889 239.9786 15.34277122 68658
TEVEL2-5                
1 63214U 25052E   26158.68065786  .00020067  00000+0  60926-3 0  9998
2 63214  97.3908  55.0087 0004330 122.9986 237.1673 15.34110180 68654
TEVEL2-6                
1 63215U 25052F   26158.69276507  .00018744  00000+0  57000-3 0  9993
2 63215  97.3913  55.0052 0004389 122.6209 237.5458 15.34073106 68653
TEVEL2-1                
1 63217U 25052H   26158.97953373  .00018996  00000+0  58698-3 0  9992
2 63217  97.3886  54.9275 0004161 131.1834 228.9767 15.33563137 68683
TEVEL2-3                
1 63218U 25052J   26158.64826287  .00018570  00000+0  57316-3 0  9994
2 63218  97.3888  54.6167 0004211 133.1501 227.0094 15.33604146 68636
TEVEL2-2                
1 63219U 25052K   26159.17564551  .00015378  00000+0  47571-3 0  9992
2 63219  97.3886  55.1258 0004197 132.1284 228.0316 15.33574364 68717
TEVEL2-9                
1 63237U 25052AD  26158.68416822  .00016541  00000+0  54354-3 0  9994
2 63237  97.3948  54.0298 0006860 157.6841 202.4700 15.31608376 68574
TEVEL2-7                
1 63238U 25052AE  26158.91931067  .00017381  00000+0  57590-3 0  9992
2 63238  97.3946  54.1842 0006952 157.9607 202.1935 15.31328760 68601
TEVEL2-8                
1 63239U 25052AF  26158.66608190  .00016862  00000+0  55924-3 0  9995
2 63239  97.3959  53.9116 0007088 159.3996 200.7532 15.31303224 68565
INNOSAT 16 (RS92S7)     
1 64878U 25155C   26159.14627014  .00005217  00000+0  20949-3 0  9990
2 64878  97.4559 126.3037 0009468 208.2257 151.8469 15.25360893 79292
GEOSCAN 6 (RS92S6)      
1 64879U 25155D   26159.15655242  .00008846  00000+0  30717-3 0  9991
2 64879  97.4552 127.6748 0007128 193.4427 166.6625 15.29981394 79381
GEOSCAN 1 (RS92S1)      
1 64880U 25155E   26159.16247176  .00009069  00000+0  30927-3 0  9998
2 64880  97.4548 127.8210 0007060 193.0418 167.0641 15.30563588 79392
239ALFEROV (RS61S)      
1 64881U 25155F   26159.14484473  .00015021  00000+0  47747-3 0  9993
2 64881  97.4550 128.3347 0006725 189.5269 170.5846 15.32700574 79424
GEOSCAN 2 (RS92S2)      
1 64890U 25155Q   26159.15775459  .00011093  00000+0  37445-3 0  9990
2 64890  97.4547 127.9652 0006941 178.1121 182.0147 15.30837452 79409
GEOSCAN 5 (RS92S5)      
1 64891U 25155R   26159.13574597  .00015175  00000+0  47767-3 0  9992
2 64891  97.4541 128.4597 0005406 192.5445 167.5664 15.33018544 79433
GEOSCAN 4 (RS92S4)      
1 64892U 25155S   26159.18609787  .00012515  00000+0  39268-3 0  9990
2 64892  97.4545 128.5562 0005471 192.7822 167.3282 15.33166245 79441
