OBJECT_NAME,OBJECT_ID,EPOCH,MEAN_MOTION,ECCENTRICITY,INCLINATION,RA_OF_ASC_NODE,ARG_OF_PERICENTER,MEAN_ANOMALY,EPHEMERIS_TYPE,CLASSIFICATION_TYPE,NORAD_CAT_ID,ELEMENT_SET_NO,REV_AT_EPOCH,BSTAR,MEAN_MOTION_DOT,MEAN_MOTION_DDOT
KUZGTU 1 (RS47S),2023-091AV,2026-06-08T03:18:51.702624,15.29654835,.0012297,97.5065,223.5274,125.8264,234.4120,0,U,57217,999,16299,.48584E-3,.13924E-3,0
SONATE-2,2024-043Q,2026-06-08T03:34:11.392608,15.58042281,.0006657,97.5526,308.9962,226.5634,133.5068,0,U,59112,999,12648,.47245E-3,.35468E-3,0
MESAT1,2024-125G,2026-06-08T03:23:50.668224,15.62232780,.0008757,97.2313,16.4235,240.2102,119.8286,0,U,60209,999,10815,.5524E-3,.48785E-3,0
OOV-CUBE (TUBSAT-30),2024-128F,2026-06-08T00:08:43.584000,15.02735598,.0045783,61.9951,257.5861,131.6812,228.8211,0,U,60240,999,10473,.23033E-3,.2948E-4,0
COLIBRI-S (RS67S),2024-199M,2026-06-08T03:19:34.375584,15.47349130,.0006603,97.3007,32.9121,321.6315,38.4465,0,U,61746,999,13601,.35297E-3,.17974E-3,0
HORS 3 (RS81S),2024-199U,2026-06-08T03:25:34.118400,15.54348989,.0004362,97.2990,34.8071,331.1698,28.9314,0,U,61753,999,13615,.4865E-3,.31842E-3,0
HORS 4 (RS82S),2024-199V,2026-06-08T03:07:13.052352,15.58835446,.0003242,97.2937,35.9383,320.2191,39.8827,0,U,61754,999,13623,.56246E-3,.43537E-3,0
ARCTICSAT 1 (RS74S),2024-199AD,2026-06-07T21:52:57.149184,16.07470356,.0007564,97.2849,42.4330,203.5095,156.5843,0,U,61762,999,13663,.12929E-2,.1015373E-1,.58519E-3
SIT-2086,2024-199AF,2026-06-08T02:38:24.818208,15.52461721,.0004533,97.2947,35.2821,302.4944,57.5870,0,U,61764,999,13302,.60184E-3,.36841E-3,0
HYPERVIEW 1G (RS66S),2024-199AP,2026-06-08T02:27:21.026016,15.73517548,.0002149,97.2894,38.3775,284.3692,75.7334,0,U,61772,999,13324,.99254E-3,.139956E-2,0
ALTAIR (RS65S),2024-199AW,2026-06-08T03:03:19.145952,15.36845284,.0012038,97.3042,28.5385,347.0917,13.0017,0,U,61779,999,13572,.27556E-3,.9868E-4,0
ASRTU-1 (AO-123),2024-199AY,2026-06-08T02:34:36.321312,15.35546662,.0013258,97.3013,27.8602,349.1404,10.9551,0,U,61781,999,13253,.24663E-3,.8464E-4,0
SAMSAT-IONOSPHERE (RS75S),2024-199BB,2026-06-08T03:03:30.776256,15.56834953,.0006331,97.2959,34.8061,323.8099,36.2727,0,U,61784,999,13615,.59623E-3,.42856E-3,0
RTU MIREA 1 (RS51S),2024-199BC,2026-06-08T02:34:26.989248,15.60101078,.0005765,97.2947,35.5723,318.2736,41.8080,0,U,61785,999,13305,.75779E-3,.61739E-3,0
TEVEL2-4,2025-052D,2026-06-07T15:52:08.882688,15.34277122,.0004354,97.3922,55.0407,120.1889,239.9786,0,U,63213,999,6865,.61719E-3,.20438E-3,0
TEVEL2-5,2025-052E,2026-06-07T16:20:08.839104,15.34110180,.000433,97.3908,55.0087,122.9986,237.1673,0,U,63214,999,6865,.60926E-3,.20067E-3,0
TEVEL2-6,2025-052F,2026-06-07T16:37:34.902048,15.34073106,.0004389,97.3913,55.0052,122.6209,237.5458,0,U,63215,999,6865,.57E-3,.18744E-3,0
TEVEL2-1,2025-052H,2026-06-07T23:30:31.714272,15.33563137,.0004161,97.3886,54.9275,131.1834,228.9767,0,U,63217,999,6868,.58698E-3,.18996E-3,0
TEVEL2-3,2025-052J,2026-06-07T15:33:29.911968,15.33604146,.0004211,97.3888,54.6167,133.1501,227.0094,0,U,63218,999,6863,.57316E-3,.1857E-3,0
TEVEL2-2,2025-052K,2026-06-08T04:12:55.772064,15.33574364,.0004197,97.3886,55.1258,132.1284,228.0316,0,U,63219,999,6871,.47571E-3,.15378E-3,0
TEVEL2-9,2025-052AD,2026-06-07T16:25:12.134208,15.31608376,.000686,97.3948,54.0298,157.6841,202.4700,0,U,63237,999,6857,.54354E-3,.16541E-3,0
TEVEL2-7,2025-052AE,2026-06-07T22:03:48.441888,15.31328760,.0006952,97.3946,54.1842,157.9607,202.1935,0,U,63238,999,6860,.5759E-3,.17381E-3,0
TEVEL2-8,2025-052AF,2026-06-07T15:59:09.476160,15.31303224,.0007088,97.3959,53.9116,159.3996,200.7532,0,U,63239,999,6856,.55924E-3,.16862E-3,0
INNOSAT 16 (RS92S7),2025-155C,2026-06-08T03:30:37.740096,15.25360893,.0009468,97.4559,126.3037,208.2257,151.8469,0,U,64878,999,7929,.20949E-3,.5217E-4,0
GEOSCAN 6 (RS92S6),2025-155D,2026-06-08T03:45:26.129088,15.29981394,.0007128,97.4552,127.6748,193.4427,166.6625,0,U,64879,999,7938,.30717E-3,.8846E-4,0
GEOSCAN 1 (RS92S1),2025-155E,2026-06-08T03:53:57.560064,15.30563588,.000706,97.4548,127.8210,193.0418,167.0641,0,U,64880,999,7939,.30927E-3,.9069E-4,0
239ALFEROV (RS61S),2025-155F,2026-06-08T03:28:34.584672,15.32700574,.0006725,97.4550,128.3347,189.5269,170.5846,0,U,64881,999,7942,.47747E-3,.15021E-3,0
GEOSCAN 2 (RS92S2),2025-155Q,2026-06-08T03:47:09.996576,15.30837452,.0006941,97.4547,127.9652,178.1121,182.0147,0,U,64890,999,7940,.37445E-3,.11093E-3,0
GEOSCAN 5 (RS92S5),2025-155R,2026-06-08T03:15:28.451808,15.33018544,.0005406,97.4541,128.4597,192.5445,167.5664,0,U,64891,999,7943,.47767E-3,.15175E-3,0
GEOSCAN 4 (RS92S4),2025-155S,2026-06-08T04:27:58.855968,15.33166245,.0005471,97.4545,128.5562,192.7822,167.3282,0,U,64892,999,7944,.39268E-3,.12515E-3,0
